{"fetched_at":"2026-04-14T06:02:07Z","count":5195,"tles":[{"name":"SL-3 R/B","line1":"1 13403U 82079B   26103.24488137  .00002814  00000+0  10997-3 0  9999","line2":"2 13403  81.1462 152.2681 0025087  51.6823 308.6660 15.25233136382965","category":"Other"},{"name":"SL-16 R/B","line1":"1 16182U 85097B   26103.32419656  .00000261  00000+0  15483-3 0  9997","line2":"2 16182  71.0023  67.6337 0008723 217.2743 305.1629 14.16604563 92138","category":"Other"},{"name":"SL-8 R/B","line1":"1 11574U 79089B   26103.21687635  .00000167  00000+0  58282-4 0  9993","line2":"2 11574  74.0712  27.1281 0016160 194.2913 165.7788 14.42374195441084","category":"Other"},{"name":"SL-14 R/B","line1":"1 13553U 82092B   26103.29646509  .00000306  00000+0  31552-4 0  9999","line2":"2 13553  82.5645 109.0197 0020233 181.8643 188.7582 14.86697805334077","category":"Other"},{"name":"SL-12 R/B(2)","line1":"1 15772U 85042D   26103.25162956  .00000101  00000+0  66923-4 0  9990","line2":"2 15772  71.1105  14.7089 0033012  70.7308  81.5636 14.21992574119309","category":"Other"},{"name":"SL-3 R/B","line1":"1 12465U 81046B   26103.23211826  .00007416  00000+0  16734-3 0  9995","line2":"2 12465  81.2296 248.2309 0018049 258.4629 101.4588 15.42877092443759","category":"Other"},{"name":"SL-8 R/B","line1":"1 15483U 85006B   26103.30001764  .00000129  00000+0  51497-4 0  9994","line2":"2 15483  74.0465 197.4624 0017263 104.1993 274.1564 14.37807156159004","category":"Other"},{"name":"SL-3 R/B","line1":"1 13068U 82013B   26103.29173729  .00002255  00000+0  95993-4 0  9996","line2":"2 13068  81.1714 120.2016 0023377  65.1543 295.2117 15.22320659409612","category":"Other"},{"name":"COSMOS 1536","line1":"1 14699U 84013A   26103.18929351  .00004552  00000+0  18431-3 0  9990","line2":"2 14699  82.5429  73.5342 0015162 153.7906 206.4102 15.24320401277879","category":"Other"},{"name":"SL-14 R/B","line1":"1 11672U 80005B   26103.22376096  .00000405  00000+0  38294-4 0  9995","line2":"2 11672  82.5112 274.4664 0016875  51.9024 308.3713 14.90971751481630","category":"Other"},{"name":"SL-3 R/B","line1":"1 12904U 81103B   26103.23128044  .00002483  00000+0  10813-3 0  9997","line2":"2 12904  81.1602 172.9090 0013625 165.7624 194.3995 15.21778142978486","category":"Other"},{"name":"SL-3 R/B","line1":"1 14208U 83075B   26103.28106304  .00006696  00000+0  17270-3 0  9990","line2":"2 14208  97.6133 109.1911 0023231 105.1365 255.2452 15.39256017335476","category":"Other"},{"name":"SL-8 R/B","line1":"1 12139U 81003B   26103.15547994  .00011568  00000+0  28714-3 0  9999","line2":"2 12139  82.9369 258.1137 0257770  58.9189 303.7064 15.12532488319881","category":"Other"},{"name":"SL-14 R/B","line1":"1 14820U 84027B   26103.30417019  .00000324  00000+0  34177-4 0  9997","line2":"2 14820  82.5439 212.5510 0017105 214.8170 145.1929 14.86014822252771","category":"Other"},{"name":"SL-14 R/B","line1":"1 15945U 85069B   26103.14374327  .00000291  00000+0  29974-4 0  9991","line2":"2 15945  82.5295 352.5447 0020357  79.1713 281.1793 14.86470011177954","category":"Other"},{"name":"SL-3 R/B","line1":"1 13154U 82039B   26103.24328827  .00001261  00000+0  74912-4 0  9990","line2":"2 13154  81.1529 176.1116 0027930 207.9557 152.0170 15.10272902386856","category":"Other"},{"name":"SL-3 R/B","line1":"1 13819U 83010B   26103.23750527  .00007938  00000+0  15339-3 0  9997","line2":"2 13819  81.1026 319.8537 0015046 288.2163  71.7444 15.47487379363288","category":"Other"}]}