[{"OBJECT_NAME":"SL-8 R/B","OBJECT_ID":"1979-089B","EPOCH":"2026-04-13T05:12:18.116640","MEAN_MOTION":14.42374195,"ECCENTRICITY":0.00161605,"INCLINATION":74.0712,"RA_OF_ASC_NODE":27.1281,"ARG_OF_PERICENTER":194.2913,"MEAN_ANOMALY":165.7788,"EPHEMERIS_TYPE":0,"CLASSIFICATION_TYPE":"U","NORAD_CAT_ID":11574,"ELEMENT_SET_NO":999,"REV_AT_EPOCH":44108,"BSTAR":5.8282163e-5,"MEAN_MOTION_DOT":1.67e-6,"MEAN_MOTION_DDOT":0},{"OBJECT_NAME":"SL-14 R/B","OBJECT_ID":"1980-005B","EPOCH":"2026-04-13T05:22:12.946944","MEAN_MOTION":14.90971751,"ECCENTRICITY":0.00168757,"INCLINATION":82.5112,"RA_OF_ASC_NODE":274.4664,"ARG_OF_PERICENTER":51.9024,"MEAN_ANOMALY":308.3713,"EPHEMERIS_TYPE":0,"CLASSIFICATION_TYPE":"U","NORAD_CAT_ID":11672,"ELEMENT_SET_NO":999,"REV_AT_EPOCH":48163,"BSTAR":3.8294485e-5,"MEAN_MOTION_DOT":4.05e-6,"MEAN_MOTION_DDOT":0},{"OBJECT_NAME":"SL-8 R/B","OBJECT_ID":"1981-003B","EPOCH":"2026-04-13T03:43:53.466816","MEAN_MOTION":15.12532488,"ECCENTRICITY":0.02577704,"INCLINATION":82.9369,"RA_OF_ASC_NODE":258.1137,"ARG_OF_PERICENTER":58.9189,"MEAN_ANOMALY":303.7064,"EPHEMERIS_TYPE":0,"CLASSIFICATION_TYPE":"U","NORAD_CAT_ID":12139,"ELEMENT_SET_NO":999,"REV_AT_EPOCH":31988,"BSTAR":0.00028713779,"MEAN_MOTION_DOT":0.00011568,"MEAN_MOTION_DDOT":0},{"OBJECT_NAME":"SL-3 R/B","OBJECT_ID":"1981-046B","EPOCH":"2026-04-13T05:34:15.017664","MEAN_MOTION":15.42877092,"ECCENTRICITY":0.00180496,"INCLINATION":81.2296,"RA_OF_ASC_NODE":248.2309,"ARG_OF_PERICENTER":258.4629,"MEAN_ANOMALY":101.4588,"EPHEMERIS_TYPE":0,"CLASSIFICATION_TYPE":"U","NORAD_CAT_ID":12465,"ELEMENT_SET_NO":999,"REV_AT_EPOCH":44375,"BSTAR":0.0001673372,"MEAN_MOTION_DOT":7.416e-5,"MEAN_MOTION_DDOT":0},{"OBJECT_NAME":"SL-3 R/B","OBJECT_ID":"1981-103B","EPOCH":"2026-04-13T05:33:02.630016","MEAN_MOTION":15.21778142,"ECCENTRICITY":0.00136258,"INCLINATION":81.1602,"RA_OF_ASC_NODE":172.909,"ARG_OF_PERICENTER":165.7624,"MEAN_ANOMALY":194.3995,"EPHEMERIS_TYPE":0,"CLASSIFICATION_TYPE":"U","NORAD_CAT_ID":12904,"ELEMENT_SET_NO":999,"REV_AT_EPOCH":97848,"BSTAR":0.00010812912,"MEAN_MOTION_DOT":2.483e-5,"MEAN_MOTION_DDOT":0},{"OBJECT_NAME":"SL-3 R/B","OBJECT_ID":"1982-013B","EPOCH":"2026-04-13T07:00:06.101856","MEAN_MOTION":15.22320659,"ECCENTRICITY":0.00233775,"INCLINATION":81.1714,"RA_OF_ASC_NODE":120.2016,"ARG_OF_PERICENTER":65.1543,"MEAN_ANOMALY":295.2117,"EPHEMERIS_TYPE":0,"CLASSIFICATION_TYPE":"U","NORAD_CAT_ID":13068,"ELEMENT_SET_NO":999,"REV_AT_EPOCH":40961,"BSTAR":9.5993358e-5,"MEAN_MOTION_DOT":2.255e-5,"MEAN_MOTION_DDOT":0},{"OBJECT_NAME":"SL-3 R/B","OBJECT_ID":"1982-039B","EPOCH":"2026-04-13T05:50:20.106528","MEAN_MOTION":15.10272902,"ECCENTRICITY":0.002793,"INCLINATION":81.1529,"RA_OF_ASC_NODE":176.1116,"ARG_OF_PERICENTER":207.9557,"MEAN_ANOMALY":152.017,"EPHEMERIS_TYPE":0,"CLASSIFICATION_TYPE":"U","NORAD_CAT_ID":13154,"ELEMENT_SET_NO":999,"REV_AT_EPOCH":38685,"BSTAR":7.4912276e-5,"MEAN_MOTION_DOT":1.261e-5,"MEAN_MOTION_DDOT":0},{"OBJECT_NAME":"SL-3 R/B","OBJECT_ID":"1982-079B","EPOCH":"2026-04-13T05:52:37.750368","MEAN_MOTION":15.25233136,"ECCENTRICITY":0.00250871,"INCLINATION":81.1462,"RA_OF_ASC_NODE":152.2681,"ARG_OF_PERICENTER":51.6823,"MEAN_ANOMALY":308.666,"EPHEMERIS_TYPE":0,"CLASSIFICATION_TYPE":"U","NORAD_CAT_ID":13403,"ELEMENT_SET_NO":999,"REV_AT_EPOCH":38296,"BSTAR":0.00010997199,"MEAN_MOTION_DOT":2.814e-5,"MEAN_MOTION_DDOT":0},{"OBJECT_NAME":"SL-14 R/B","OBJECT_ID":"1982-092B","EPOCH":"2026-04-13T07:06:54.583776","MEAN_MOTION":14.86697805,"ECCENTRICITY":0.00202332,"INCLINATION":82.5645,"RA_OF_ASC_NODE":109.0197,"ARG_OF_PERICENTER":181.8643,"MEAN_ANOMALY":188.7582,"EPHEMERIS_TYPE":0,"CLASSIFICATION_TYPE":"U","NORAD_CAT_ID":13553,"ELEMENT_SET_NO":999,"REV_AT_EPOCH":33407,"BSTAR":3.1551525e-5,"MEAN_MOTION_DOT":3.06e-6,"MEAN_MOTION_DDOT":0},{"OBJECT_NAME":"SL-3 R/B","OBJECT_ID":"1983-010B","EPOCH":"2026-04-13T05:42:00.455328","MEAN_MOTION":15.47487379,"ECCENTRICITY":0.00150469,"INCLINATION":81.1026,"RA_OF_ASC_NODE":319.8537,"ARG_OF_PERICENTER":288.2163,"MEAN_ANOMALY":71.7444,"EPHEMERIS_TYPE":0,"CLASSIFICATION_TYPE":"U","NORAD_CAT_ID":13819,"ELEMENT_SET_NO":999,"REV_AT_EPOCH":36328,"BSTAR":0.0001533907,"MEAN_MOTION_DOT":7.938e-5,"MEAN_MOTION_DDOT":0},{"OBJECT_NAME":"SL-3 R/B","OBJECT_ID":"1983-075B","EPOCH":"2026-04-13T06:44:43.846656","MEAN_MOTION":15.39256017,"ECCENTRICITY":0.00232315,"INCLINATION":97.6133,"RA_OF_ASC_NODE":109.1911,"ARG_OF_PERICENTER":105.1365,"MEAN_ANOMALY":255.2452,"EPHEMERIS_TYPE":0,"CLASSIFICATION_TYPE":"U","NORAD_CAT_ID":14208,"ELEMENT_SET_NO":999,"REV_AT_EPOCH":33547,"BSTAR":0.0001727031,"MEAN_MOTION_DOT":6.696e-5,"MEAN_MOTION_DDOT":0},{"OBJECT_NAME":"COSMOS 1536","OBJECT_ID":"1984-013A","EPOCH":"2026-04-13T04:32:34.959264","MEAN_MOTION":15.24320401,"ECCENTRICITY":0.00151629,"INCLINATION":82.5429,"RA_OF_ASC_NODE":73.5342,"ARG_OF_PERICENTER":153.7906,"MEAN_ANOMALY":206.4102,"EPHEMERIS_TYPE":0,"CLASSIFICATION_TYPE":"U","NORAD_CAT_ID":14699,"ELEMENT_SET_NO":999,"REV_AT_EPOCH":27787,"BSTAR":0.00018431388,"MEAN_MOTION_DOT":4.552e-5,"MEAN_MOTION_DDOT":0},{"OBJECT_NAME":"SL-14 R/B","OBJECT_ID":"1984-027B","EPOCH":"2026-04-13T07:18:00.304416","MEAN_MOTION":14.86014822,"ECCENTRICITY":0.00171054,"INCLINATION":82.5439,"RA_OF_ASC_NODE":212.551,"ARG_OF_PERICENTER":214.817,"MEAN_ANOMALY":145.1929,"EPHEMERIS_TYPE":0,"CLASSIFICATION_TYPE":"U","NORAD_CAT_ID":14820,"ELEMENT_SET_NO":999,"REV_AT_EPOCH":25277,"BSTAR":3.4177384e-5,"MEAN_MOTION_DOT":3.24e-6,"MEAN_MOTION_DDOT":0},{"OBJECT_NAME":"SL-8 R/B","OBJECT_ID":"1985-006B","EPOCH":"2026-04-13T07:12:01.524096","MEAN_MOTION":14.37807156,"ECCENTRICITY":0.00172639,"INCLINATION":74.0465,"RA_OF_ASC_NODE":197.4624,"ARG_OF_PERICENTER":104.1993,"MEAN_ANOMALY":274.1564,"EPHEMERIS_TYPE":0,"CLASSIFICATION_TYPE":"U","NORAD_CAT_ID":15483,"ELEMENT_SET_NO":999,"REV_AT_EPOCH":15900,"BSTAR":5.1496788e-5,"MEAN_MOTION_DOT":1.29e-6,"MEAN_MOTION_DDOT":0},{"OBJECT_NAME":"SL-12 R/B(2)","OBJECT_ID":"1985-042D","EPOCH":"2026-04-13T06:02:20.793984","MEAN_MOTION":14.21992574,"ECCENTRICITY":0.00330124,"INCLINATION":71.1105,"RA_OF_ASC_NODE":14.7089,"ARG_OF_PERICENTER":70.7308,"MEAN_ANOMALY":81.5636,"EPHEMERIS_TYPE":0,"CLASSIFICATION_TYPE":"U","NORAD_CAT_ID":15772,"ELEMENT_SET_NO":999,"REV_AT_EPOCH":11930,"BSTAR":6.6922663e-5,"MEAN_MOTION_DOT":1.01e-6,"MEAN_MOTION_DDOT":0},{"OBJECT_NAME":"SL-14 R/B","OBJECT_ID":"1985-069B","EPOCH":"2026-04-13T03:26:59.418528","MEAN_MOTION":14.86470011,"ECCENTRICITY":0.00203576,"INCLINATION":82.5295,"RA_OF_ASC_NODE":352.5447,"ARG_OF_PERICENTER":79.1713,"MEAN_ANOMALY":281.1793,"EPHEMERIS_TYPE":0,"CLASSIFICATION_TYPE":"U","NORAD_CAT_ID":15945,"ELEMENT_SET_NO":999,"REV_AT_EPOCH":17795,"BSTAR":2.99743e-5,"MEAN_MOTION_DOT":2.91e-6,"MEAN_MOTION_DDOT":0},{"OBJECT_NAME":"SL-16 R/B","OBJECT_ID":"1985-097B","EPOCH":"2026-04-13T07:46:50.582784","MEAN_MOTION":14.16604563,"ECCENTRICITY":0.00087238,"INCLINATION":71.0023,"RA_OF_ASC_NODE":67.6337,"ARG_OF_PERICENTER":217.2743,"MEAN_ANOMALY":305.1629,"EPHEMERIS_TYPE":0,"CLASSIFICATION_TYPE":"U","NORAD_CAT_ID":16182,"ELEMENT_SET_NO":999,"REV_AT_EPOCH":9213,"BSTAR":0.00015483084,"MEAN_MOTION_DOT":2.61e-6,"MEAN_MOTION_DDOT":0}]
